[{"OBJECT_NAME":"TK-2","OBJECT_ID":"2022-031A","EPOCH":"2026-03-09T22:51:17.143200","MEAN_MOTION":15.02943491,"ECCENTRICITY":0.00164117,"INCLINATION":97.8366,"RA_OF_ASC_NODE":263.9365,"ARG_OF_PERICENTER":100.3205,"MEAN_ANOMALY":259.9871,"EPHEMERIS_TYPE":0,"CLASSIFICATION_TYPE":"U","NORAD_CAT_ID":52150,"ELEMENT_SET_NO":999,"REV_AT_EPOCH":21555,"BSTAR":0.00040164474,"MEAN_MOTION_DOT":5.349e-5,"MEAN_MOTION_DDOT":0},{"OBJECT_NAME":"STARLINK-34117","OBJECT_ID":"2025-102U","EPOCH":"2026-03-09T12:28:57.378720","MEAN_MOTION":14.98306685,"ECCENTRICITY":0.0003098,"INCLINATION":70.0009,"RA_OF_ASC_NODE":115.004,"ARG_OF_PERICENTER":269.949,"MEAN_ANOMALY":90.1314,"EPHEMERIS_TYPE":0,"CLASSIFICATION_TYPE":"U","NORAD_CAT_ID":64040,"ELEMENT_SET_NO":999,"REV_AT_EPOCH":4586,"BSTAR":0.00077784,"MEAN_MOTION_DOT":9.195e-5,"MEAN_MOTION_DDOT":0}]
